{"type": "FeatureCollection", "features": [ {"type": "Feature", "properties": {"norad_id": 40118, "name": "GAOFEN-2", "group": "resource", "lat": -28.719323772644117, "lon": -127.93065012810733, "alt_km": 636.7953028005586, "timestamp": "2025-12-23T07:45:09.053740+00:00", "meta": {"OBJECT_NAME": "GAOFEN-2", "OBJECT_ID": "2014-049A", "EPOCH": "2025-12-22T22:42:10.888704", "MEAN_MOTION": 14.80625805, "ECCENTRICITY": 0.00087909, "INCLINATION": 98.0372, "RA_OF_ASC_NODE": 56.132, "ARG_OF_PERICENTER": 84.8055, "MEAN_ANOMALY": 275.416, "EPHEMERIS_TYPE": 0, "CLASSIFICATION_TYPE": "U", "NORAD_CAT_ID": 40118, "ELEMENT_SET_NO": 999, "REV_AT_EPOCH": 61315, "BSTAR": 0.00011770043, "MEAN_MOTION_DOT": 8.5e-06, "MEAN_MOTION_DDOT": 0}, "tle": {"line1": "1 40118U 14049A   25356.94595936  .00000850  00000+0  11770-3 0  9994", "line2": "2 40118  98.0372  56.1320 0008790  84.8055 275.4160 14.80625805613156"}}, "geometry": {"type": "Point", "coordinates": [-127.93065012810733, -28.719323772644117]}}, {"type": "Feature", "properties": {"norad_id": 40143, "name": "YAOGAN-21", "group": "resource", "lat": 11.476575457542362, "lon": 38.70981374168874, "alt_km": 489.9834285521365, "timestamp": "2025-12-23T07:45:09.053750+00:00", "meta": {"OBJECT_NAME": "YAOGAN-21", "OBJECT_ID": "2014-053A", "EPOCH": "2025-12-22T23:49:18.226848", "MEAN_MOTION": 15.23773079, "ECCENTRICITY": 0.00087071, "INCLINATION": 97.1741, "RA_OF_ASC_NODE": 39.8591, "ARG_OF_PERICENTER": 8.0435, "MEAN_ANOMALY": 352.094, "EPHEMERIS_TYPE": 0, "CLASSIFICATION_TYPE": "U", "NORAD_CAT_ID": 40143, "ELEMENT_SET_NO": 999, "REV_AT_EPOCH": 62810, "BSTAR": 0.00023389978, "MEAN_MOTION_DOT": 5.565e-05, "MEAN_MOTION_DDOT": 0}, "tle": {"line1": "1 40143U 14053A   25356.99257207  .00005565  00000+0  23390-3 0  9997", "line2": "2 40143  97.1741  39.8591 0008707   8.0435 352.0940 15.23773079628104"}}, "geometry": {"type": "Point", "coordinates": [38.70981374168874, 11.476575457542362]}}, {"type": "Feature", "properties": {"norad_id": 40275, "name": "YAOGAN-22", "group": "resource", "lat": -27.169463192430847, "lon": -44.699539626085965, "alt_km": 1202.9529984144447, "timestamp": "2025-12-23T07:45:09.053760+00:00", "meta": {"OBJECT_NAME": "YAOGAN-22", "OBJECT_ID": "2014-063A", "EPOCH": "2025-12-22T19:44:55.689792", "MEAN_MOTION": 13.15523021, "ECCENTRICITY": 0.00060614, "INCLINATION": 100.7428, "RA_OF_ASC_NODE": 140.3849, "ARG_OF_PERICENTER": 224.1984, "MEAN_ANOMALY": 135.8644, "EPHEMERIS_TYPE": 0, "CLASSIFICATION_TYPE": "U", "NORAD_CAT_ID": 40275, "ELEMENT_SET_NO": 999, "REV_AT_EPOCH": 53662, "BSTAR": 0.00010463176, "MEAN_MOTION_DOT": -7e-08, "MEAN_MOTION_DDOT": 0}, "tle": {"line1": "1 40275U 14063A   25356.82286678 -.00000007  00000+0  10463-3 0  9994", "line2": "2 40275 100.7428 140.3849 0006061 224.1984 135.8644 13.15523021536620"}}, "geometry": {"type": "Point", "coordinates": [-44.699539626085965, -27.169463192430847]}}, {"type": "Feature", "properties": {"norad_id": 40298, "name": "ASNARO", "group": "resource", "lat": -79.6331718141897, "lon": -151.9814715559663, "alt_km": 518.0409456369725, "timestamp": "2025-12-23T07:45:09.053770+00:00", "meta": {"OBJECT_NAME": "ASNARO", "OBJECT_ID": "2014-070A", "EPOCH": "2025-12-22T22:41:56.307840", "MEAN_MOTION": 15.19688865, "ECCENTRICITY": 0.00057903, "INCLINATION": 97.3645, "RA_OF_ASC_NODE": 72.6426, "ARG_OF_PERICENTER": 95.0166, "MEAN_ANOMALY": 265.173, "EPHEMERIS_TYPE": 0, "CLASSIFICATION_TYPE": "U", "NORAD_CAT_ID": 40298, "ELEMENT_SET_NO": 999, "REV_AT_EPOCH": 61724, "BSTAR": 0.00034710148, "MEAN_MOTION_DOT": 7.347e-05, "MEAN_MOTION_DDOT": 0}, "tle": {"line1": "1 40298U 14070A   25356.94579060  .00007347  00000+0  34710-3 0  9994", "line2": "2 40298  97.3645  72.6426 0005790  95.0166 265.1730 15.19688865617245"}}, "geometry": {"type": "Point", "coordinates": [-151.9814715559663, -79.6331718141897]}}, {"type": "Feature", "properties": {"norad_id": 40310, "name": "YAOGAN-24", "group": "resource", "lat": 23.53489170745381, "lon": 124.90670733427464, "alt_km": 639.4508108928303, "timestamp": "2025-12-23T07:45:09.053779+00:00", "meta": {"OBJECT_NAME": "YAOGAN-24", "OBJECT_ID": "2014-072A", "EPOCH": "2025-12-22T23:30:40.118400", "MEAN_MOTION": 14.76194808, "ECCENTRICITY": 0.00151433, "INCLINATION": 98.123, "RA_OF_ASC_NODE": 128.128, "ARG_OF_PERICENTER": 107.3388, "MEAN_ANOMALY": 252.9479, "EPHEMERIS_TYPE": 0, "CLASSIFICATION_TYPE": "U", "NORAD_CAT_ID": 40310, "ELEMENT_SET_NO": 999, "REV_AT_EPOCH": 59772, "BSTAR": 6.9492045e-05, "MEAN_MOTION_DOT": 4.29e-06, "MEAN_MOTION_DDOT": 0}, "tle": {"line1": "1 40310U 14072A   25356.97963100  .00000429  00000+0  69492-4 0  9996", "line2": "2 40310  98.1230 128.1280 0015143 107.3388 252.9479 14.76194808597725"}}, "geometry": {"type": "Point", "coordinates": [124.90670733427464, 23.53489170745381]}}, {"type": "Feature", "properties": {"norad_id": 40336, "name": "CBERS 4", "group": "resource", "lat": 17.128534837374364, "lon": 52.38941449702255, "alt_km": 773.650122875757, "timestamp": "2025-12-23T07:45:09.053789+00:00", "meta": {"OBJECT_NAME": "CBERS 4", "OBJECT_ID": "2014-079A", "EPOCH": "2025-12-22T23:18:28.511712", "MEAN_MOTION": 14.35521227, "ECCENTRICITY": 0.00018599, "INCLINATION": 98.3295, "RA_OF_ASC_NODE": 54.6375, "ARG_OF_PERICENTER": 101.4873, "MEAN_ANOMALY": 258.6523, "EPHEMERIS_TYPE": 0, "CLASSIFICATION_TYPE": "U", "NORAD_CAT_ID": 40336, "ELEMENT_SET_NO": 999, "REV_AT_EPOCH": 57867, "BSTAR": 4.871098e-05, "MEAN_MOTION_DOT": 9.8e-07, "MEAN_MOTION_DDOT": 0}, "tle": {"line1": "1 40336U 14079A   25356.97116333  .00000098  00000+0  48711-4 0  9992", "line2": "2 40336  98.3295  54.6375 0001859 101.4873 258.6523 14.35521227578677"}}, "geometry": {"type": "Point", "coordinates": [52.38941449702255, 17.128534837374364]}}, {"type": "Feature", "properties": {"norad_id": 40362, "name": "YAOGAN-26", "group": "resource", "lat": -34.236552271561585, "lon": 2.4621343074155004, "alt_km": 450.6087275923528, "timestamp": "2025-12-23T07:45:09.053799+00:00", "meta": {"OBJECT_NAME": "YAOGAN-26", "OBJECT_ID": "2014-088A", "EPOCH": "2025-12-22T22:32:35.697984", "MEAN_MOTION": 15.39649767, "ECCENTRICITY": 0.00047669, "INCLINATION": 97.0637, "RA_OF_ASC_NODE": 357.2511, "ARG_OF_PERICENTER": 358.2369, "MEAN_ANOMALY": 1.886, "EPHEMERIS_TYPE": 0, "CLASSIFICATION_TYPE": "U", "NORAD_CAT_ID": 40362, "ELEMENT_SET_NO": 999, "REV_AT_EPOCH": 61051, "BSTAR": 0.00075367427, "MEAN_MOTION_DOT": 0.00029734, "MEAN_MOTION_DDOT": 0}, "tle": {"line1": "1 40362U 14088A   25356.93930206  .00029734  00000+0  75367-3 0  9994", "line2": "2 40362  97.0637 357.2511 0004766 358.2369   1.8860 15.39649767610515"}}, "geometry": {"type": "Point", "coordinates": [2.4621343074155004, -34.236552271561585]}}, {"type": "Feature", "properties": {"norad_id": 40376, "name": "SMAP", "group": "resource", "lat": -18.95146528220591, "lon": 179.0811125143776, "alt_km": 687.7194143500601, "timestamp": "2025-12-23T07:45:09.053809+00:00", "meta": {"OBJECT_NAME": "SMAP", "OBJECT_ID": "2015-003A", "EPOCH": "2025-12-22T22:38:26.475072", "MEAN_MOTION": 14.63357209, "ECCENTRICITY": 0.00012267, "INCLINATION": 98.1289, "RA_OF_ASC_NODE": 1.5201, "ARG_OF_PERICENTER": 91.869, "MEAN_ANOMALY": 268.2652, "EPHEMERIS_TYPE": 0, "CLASSIFICATION_TYPE": "U", "NORAD_CAT_ID": 40376, "ELEMENT_SET_NO": 999, "REV_AT_EPOCH": 58184, "BSTAR": 0.00010787249, "MEAN_MOTION_DOT": 5.1e-06, "MEAN_MOTION_DDOT": 0}, "tle": {"line1": "1 40376U 15003A   25356.94336198  .00000510  00000+0  10787-3 0  9994", "line2": "2 40376  98.1289   1.5201 0001226  91.8690 268.2652 14.63357209581849"}}, "geometry": {"type": "Point", "coordinates": [179.0811125143776, -18.95146528220591]}}, {"type": "Feature", "properties": {"norad_id": 40536, "name": "KOMPSAT-3A", "group": "resource", "lat": 80.00085501476515, "lon": -77.68418122201413, "alt_km": 422.4188597381835, "timestamp": "2025-12-23T07:45:09.053819+00:00", "meta": {"OBJECT_NAME": "KOMPSAT-3A", "OBJECT_ID": "2015-014A", "EPOCH": "2025-12-22T22:03:41.425344", "MEAN_MOTION": 15.44300543, "ECCENTRICITY": 0.0005575, "INCLINATION": 97.68, "RA_OF_ASC_NODE": 331.8305, "ARG_OF_PERICENTER": 104.3991, "MEAN_ANOMALY": 255.7875, "EPHEMERIS_TYPE": 0, "CLASSIFICATION_TYPE": "U", "NORAD_CAT_ID": 40536, "ELEMENT_SET_NO": 999, "REV_AT_EPOCH": 59452, "BSTAR": 0.00043493293, "MEAN_MOTION_DOT": 0.00019967, "MEAN_MOTION_DDOT": 0}, "tle": {"line1": "1 40536U 15014A   25356.91922946  .00019967  00000+0  43493-3 0  9999", "line2": "2 40536  97.6800 331.8305 0005575 104.3991 255.7875 15.44300543594525"}}, "geometry": {"type": "Point", "coordinates": [-77.68418122201413, 80.00085501476515]}}, {"type": "Feature", "properties": {"norad_id": 40697, "name": "SENTINEL-2A", "group": "resource", "lat": -81.41425946126613, "lon": 161.97183856145824, "alt_km": 797.1309278838044, "timestamp": "2025-12-23T07:45:09.053829+00:00", "meta": {"OBJECT_NAME": "SENTINEL-2A", "OBJECT_ID": "2015-028A", "EPOCH": "2025-12-22T23:46:57.432864", "MEAN_MOTION": 14.30808368, "ECCENTRICITY": 0.00010699, "INCLINATION": 98.5737, "RA_OF_ASC_NODE": 69.3799, "ARG_OF_PERICENTER": 87.9965, "MEAN_ANOMALY": 272.134, "EPHEMERIS_TYPE": 0, "CLASSIFICATION_TYPE": "U", "NORAD_CAT_ID": 40697, "ELEMENT_SET_NO": 999, "REV_AT_EPOCH": 54853, "BSTAR": -1.5809092e-05, "MEAN_MOTION_DOT": -8.5e-07, "MEAN_MOTION_DDOT": 0}, "tle": {"line1": "1 40697U 15028A   25356.99094251 -.00000085  00000+0 -15809-4 0  9993", "line2": "2 40697  98.5737  69.3799 0001069  87.9965 272.1340 14.30808368548535"}}, "geometry": {"type": "Point", "coordinates": [161.97183856145824, -81.41425946126613]}}]}